[Satellite]
VERSION=1.1
NAME=CHOMPTT
NICKNAME=CHOMPTT
TLE1=1 43855U 18104G   19311.53631919  .00001002  00000-0  41191-4 0  9994
TLE2=2 43855  85.0364 322.6576 0018192 145.6895 214.5527 15.22584722 49606
STATUS=0
